EUTELSAT 21B            
1 38992U 12062B   26008.60091891  .00000136  00000+0  00000+0 0  9990
2 38992   0.0694  20.6575 0003079 272.2522  53.1457  1.00271886 48222
EUTELSAT 70B            
1 39020U 12069A   26008.68109532 -.00000037  00000+0  00000+0 0  9991
2 39020   0.0630 345.6618 0003819 279.7264 158.5304  1.00270504 47912
EUTELSAT 117 WEST A     
1 39122U 13012A   26008.59327191 -.00000007  00000+0  00000+0 0  9993
2 39122   0.0430 281.0589 0002996  11.2238 272.6223  1.00270684 46835
EUTELSAT 7B             
1 39163U 13022A   26008.59805890  .00000054  00000+0  00000+0 0  9997
2 39163   0.0654   5.7727 0005444 324.0493   0.6019  1.00272273 46346
EXPRESS-AT1             
1 39612U 14010A   26008.85747012  .00000085  00000+0  00000+0 0  9998
2 39612   0.0266 276.3089 0000200  27.9607 168.7966  1.00274562 43226
EXPRESS-AT2             
1 39613U 14010B   26008.83838102 -.00000274  00000+0  00000+0 0  9999
2 39613   0.0120 315.0788 0001202 316.3162 278.6428  1.00272409 42903
EUTELSAT 3B             
1 39773U 14030A   26008.59727889  .00000025  00000+0  00000+0 0  9993
2 39773   0.0623 346.5477 0003872 255.6628  84.0527  1.00268302 42466
